H,albedo,e,a,q,i,om,w,ma,ad,n,per,per_y,moid,diameter_pred
13.1,0.429,0.1173715178977164,2.203143704000694,1.944557383315336,5.108530907525544,175.2734547796931,52.1366176794042,2.016836069704379,2.461730024686053,0.3013976316342704,1194.435397677047,3.27018589370855,0.940235,5.0481195
11.3,0.286,0.0617073697046122,2.874630497133126,2.697244610282379,2.830290967610336,138.4971346701111,277.0881927494514,186.8794193189472,3.052016383983873,0.2022232243929759,1780.210957869112,4.87395197226314,1.71059,15.818914
15.7,0.111,0.1082380182567865,3.024029090565483,2.696714174651802,12.50678735778483,90.77537614888315,339.6547038621337,36.49809284017804,3.351344006479163,0.187423967432043,1920.778889340982,5.25880599408893,1.71533,2.7277896
13.6,0.132,0.2052485730635377,2.553929793966544,2.029739348050456,16.56798052793354,109.2477127337635,357.6546060602097,65.22167060581673,3.078120239882631,0.2414852683305657,1490.774168083832,4.08151722952452,1.04662,6.343818
17.8,,0.2334943667380707,2.427759055846249,1.860890992508813,5.57846332601428,85.62360160757942,217.8238275721588,3.233397269640393,2.994627119183685,0.260552773074225,1381.677867989703,3.78282783843861,0.849253,0.7928304
15.7,0.32,0.1292112452649022,2.258055401229369,1.966289250959384,6.530087061337737,205.8468956732534,341.9532207644328,325.044174011231,2.549821551499354,0.2904706016278161,1239.36810810642,3.39320495032559,0.967801,1.9144602
14.7,0.255,0.1460817669663293,2.417575807757098,2.06441206198489,1.570865452518612,319.2002868026128,188.09202656,275.4584651318233,2.770739553529305,0.2622007455433114,1372.993807679825,3.75905217708371,1.07609,3.0647724
14.0,0.349,0.0600754732021466,2.359393164048878,2.217651503248732,7.871233059398043,85.92261650128255,113.8810579274342,309.0054137670982,2.501134824849025,0.271959102150126,1323.728447232753,3.62417097120535,1.22607,3.5320451
13.2,0.049,0.2279883588051387,2.63980808090318,2.037962568977521,3.44949583873852,88.12302522094116,262.1304807054868,30.6964587172829,3.241653592828839,0.2297976287393187,1566.5957998565,4.28910554375496,1.03548,13.486994
12.8,0.244,0.127648593047108,2.586377504503611,2.256230054965034,14.84222365959334,34.30146048600947,271.3891526209439,89.34142621925704,2.916524954042187,0.2369551774863224,1519.274673881224,4.15954736175558,1.3013,7.480515
12.4,0.229,0.1947769650668165,2.751689221848765,2.215723546409992,7.638170843234803,247.0844155939746,200.9403153193643,86.61573027259095,3.287654897287537,0.2159260299312119,1667.237618895166,4.56464782722838,1.23387,8.253266
13.3,0.223,0.1392794764652256,2.448509321023814,2.107482224671392,2.543640238308548,46.39559668439553,197.263163321811,57.11140657863898,2.789536417376236,0.2572476590877906,1399.429644089174,3.83142955260554,1.0946,6.202689
16.0,0.228,0.1467244850335812,2.540425741973406,2.167683083216304,11.33991473738359,145.6613983301524,148.1426033841968,168.3250395327805,2.913168400730507,0.2434133070261799,1478.96597929743,4.04918817056107,1.16061,2.2662182
14.1,0.248,0.1408137913172601,2.545292586327074,2.186880287234644,13.3997708481551,320.4676014922507,109.5821897947018,241.2678366046947,2.903704885419503,0.2427154963631334,1483.218028491243,4.06082964679327,1.24265,4.063951
14.6,0.193,0.047088219564416,2.798320850192591,2.666552903587039,6.143312669981131,175.7526911853957,232.7409836532841,210.6518253666113,2.930088796798143,0.2105512438038704,1709.797546175229,4.68117055763239,1.68041,3.5122223
11.8,0.025,0.2123005712718636,2.771795219542949,2.18334151098536,5.398941909371398,209.7564230363388,32.86200236422739,150.4145284664826,3.360248928100537,0.2135808751855075,1685.544174717511,4.61476844549627,1.1731,24.636585
14.0,0.221,0.1927970931317755,2.647355889612128,2.136953369609624,15.07282642923989,159.3599073556874,182.625037048789,313.5497171943513,3.157758409614631,0.2288155743312874,1573.319478152213,4.3075139716693,1.12881,4.48515
14.7,0.245,0.1837414938127146,2.758547331792104,2.251687724295545,4.630757394211722,332.7902309368103,86.87858079023175,90.78350048831672,3.265406939288663,0.2151213000318174,1673.474453467669,4.58172334967192,1.26993,3.0890818
16.5,0.27,0.0842349486670743,2.187375726281516,2.003122244262588,5.202358622475201,164.1885198316845,82.8845934636656,357.1088171606748,2.371629208300444,0.3046624928886569,1181.635443820671,3.23514152996761,0.997732,1.5930388
13.8,0.332,0.0600101066033189,2.581235005352189,2.426334817512786,9.72760692462384,26.30006741442681,218.9708853197307,260.5423117930725,2.736135193191592,0.2376636456280466,1514.745762014502,4.14714787683642,1.42241,4.023496
12.2,0.104,0.0529483215803343,2.958444085088145,2.80179943629346,12.663967025991,303.863373692929,78.67764293925985,189.5419466321618,3.11508873388283,0.1936908146094124,1858.632278076577,5.08865784552109,1.83531,15.737219
13.5,0.167,0.1765939268818936,3.066429594151596,2.524916750613515,6.286137938845833,211.7201092070061,225.6270360042955,61.18652511281284,3.607942437689677,0.1835500797035378,1961.317590171884,5.36979490806813,1.54493,6.040106
11.6,0.098,0.047534869068572,3.413297968297027,3.251047296282005,9.225682182158884,32.95330959721781,277.8294354937428,246.8356260848754,3.575548640312049,0.1562941671343828,2303.348913145745,6.30622563489595,2.25538,19.417242
12.0,0.047,0.14267872170356,3.127169043976075,2.680988562230624,2.085530003581062,128.1752937188027,183.4921475431527,293.4461545418283,3.573349525721525,0.1782284525466063,2019.879513378263,5.53012871561468,1.66673,22.114832
14.9,0.278,0.1890297568289065,2.249697860037006,1.824438020615699,3.68104554585374,132.5032865912678,29.1703257786007,8.243920176642341,2.674957699458313,0.2920907346884806,1232.493733099565,3.37438393730203,0.833974,2.6268098
13.7,0.337,0.0725506948893674,2.360313718209448,2.189071317796446,6.271805355843737,326.0185269431407,263.2625494386414,124.5279410506424,2.53155611862245,0.271800016091437,1324.503232843413,3.62629221859935,1.18979,4.1188126
14.6,0.133,0.0932312033440545,2.276831009920293,2.064559315054365,6.095376302973498,120.1586518517878,40.59907659685562,170.6340862615151,2.48910270478622,0.2868850236590053,1254.858114963505,3.43561427779194,1.07798,4.3078194
10.5,0.192,0.06535817646418,2.852475034513148,2.666042467847769,1.505935874477819,350.9824048537128,60.1763816257537,166.8336608587644,3.038907601178526,0.2045838257846878,1759.66989872835,4.81771361732608,1.67687,21.420662
16.6,0.033,0.0783743044385238,2.63918866691988,2.432344090867999,4.671779757067442,336.3627376376352,98.98537574071553,133.3426386694251,2.84603324297176,0.2298785332713275,1566.044444763744,4.28759601578027,1.45283,3.9294534
16.9,,0.1421385756163256,2.260951712088046,1.939583256194559,7.707053314867967,76.08586024440302,251.530482297354,254.6161544932952,2.582320167981534,0.2899126350411197,1241.753399085002,3.39973552110883,0.944122,0.80303615
11.5,0.166,0.0791651518173171,3.019331024082359,2.780305225174143,10.419438329538,168.7853042369299,157.7702088892248,123.4069142822511,3.258356822990574,0.1878615839217939,1916.304507204978,5.24655580343594,1.77255,15.76298
14.9,0.109,0.1154702077718916,2.27445255108085,2.011821042440235,5.519588021166724,19.23855715531933,68.6403987345335,157.050823156692,2.537084059721464,0.2873351468605068,1252.892324289064,3.43023223624658,1.03569,4.3944755
14.8,0.133,0.1416969294118711,2.540587233461262,2.180593823576801,1.80937213399065,233.6116959654628,89.49974947559527,177.5290681371627,2.900580643345723,0.2433900986797454,1479.107005390925,4.04957427896215,1.16915,3.954532
18.2,,0.2732968278912543,2.597392018798982,1.887533019271159,6.252031850554912,192.6909054862604,171.2016920634174,278.1704104230637,3.307251018326805,0.235449526467345,1528.990121158427,4.18614680673081,0.885884,0.8152789
13.5,0.167,0.0784790079762282,2.99367333724267,2.75873282353098,8.479109249700018,203.452237363277,145.7235990933189,209.3529066397812,3.22861385095436,0.1902818914794055,1891.929900428614,5.17982176708724,1.75832,6.051203
14.5,0.329,0.1388578998998912,2.265152844828868,1.950618477843668,4.421815140568458,248.8479622827154,203.7000354107349,40.74401368341944,2.579687211814069,0.2891064665573405,1245.216007399816,3.40921562600908,0.968154,2.8089046
15.6,0.229,0.0550219785266232,2.343774366531863,2.214815263665297,3.814930313140572,62.28538445108209,161.7924826173104,163.6918207558841,2.47273346939843,0.2746821092854283,1310.605925287679,3.58824346416887,1.20551,2.381182
13.3,0.062,0.0554092284869651,3.114502436889524,2.941930259740703,11.20253973080555,160.5239813933472,172.733495095083,261.1808689656037,3.287074614038346,0.1793168335750177,2007.619657467312,5.49656305945876,1.93236,11.526415
13.8,0.319,0.0362986112110109,2.937413185707546,2.83078916651345,1.194927163992606,217.6549224014348,307.1070604366549,141.9273803650053,3.04403720490164,0.195774675974409,1838.848657050302,5.03449324312198,1.83761,4.114994
13.8,0.292,0.1575054574500453,2.389686190372402,2.01329757379574,1.746351627966091,202.6816270790704,357.707785518199,353.2045646459352,2.766074806949062,0.2668042621681273,1349.303782010593,3.69419242165802,1.01062,4.2923923
17.3,,0.2012609561163545,2.899601415079884,2.316024861924572,8.3389073386406,156.7024144681317,259.415680559108,155.9021887127194,3.483177968235196,0.1996165840175424,1803.457371900338,4.93759718521653,1.34504,0.81536335
12.9,0.34,0.1620480068867909,2.393119922062385,2.005319608451103,5.404222231387259,296.4943112465397,49.03517340965168,245.2578258740369,2.780920235673666,0.2662302381476616,1352.213041256156,3.70215753937346,1.00248,6.031437
13.8,0.048,0.2213541600463104,2.612837640235308,2.034475159043637,3.522748306808321,208.7264553433616,60.3181811808179,206.4463670336861,3.191200121426979,0.2333648478709545,1542.648789157276,4.22354220166263,1.02129,11.143723
12.0,0.092,0.0788888829509365,2.683153882496321,2.471482869920718,8.087276266219696,35.11722580067531,166.099947274788,5.433388267532434,2.894824895071924,0.2242516786960734,1605.339153281904,4.39517906442684,1.46862,18.186733
